[{"OBJECT_NAME":"FALCONSAT-6","OBJECT_ID":"2018-099BK","EPOCH":"2026-03-09T17:24:38.352096","MEAN_MOTION":15.26532865,"ECCENTRICITY":0.00143698,"INCLINATION":97.3865,"RA_OF_ASC_NODE":145.8165,"ARG_OF_PERICENTER":297.0944,"MEAN_ANOMALY":181.0714,"EPHEMERIS_TYPE":0,"CLASSIFICATION_TYPE":"U","NORAD_CAT_ID":43815,"ELEMENT_SET_NO":999,"REV_AT_EPOCH":39855,"BSTAR":0.00019476898,"MEAN_MOTION_DOT":5.029e-5,"MEAN_MOTION_DDOT":0},{"OBJECT_NAME":"STARLINK-32940","OBJECT_ID":"2025-075W","EPOCH":"2026-03-09T22:07:39.508320","MEAN_MOTION":15.27610947,"ECCENTRICITY":0.00017829,"INCLINATION":43.0005,"RA_OF_ASC_NODE":269.2315,"ARG_OF_PERICENTER":288.3145,"MEAN_ANOMALY":71.7513,"EPHEMERIS_TYPE":0,"CLASSIFICATION_TYPE":"U","NORAD_CAT_ID":63568,"ELEMENT_SET_NO":999,"REV_AT_EPOCH":5196,"BSTAR":0.0010463237,"MEAN_MOTION_DOT":0.0002867,"MEAN_MOTION_DDOT":0}]
